{
    "links": {
        "self": "http://www.neowsapp.com/rest/v1/neo/3826810?api_key=iIulBulltgU6a56xZRHN4H3l9WmuAYTsLGpBGhQ2"
    },
    "id": "3826810",
    "neo_reference_id": "3826810",
    "name": "(2018 PL22)",
    "designation": "2018 PL22",
    "nasa_jpl_url": "http://ssd.jpl.nasa.gov/sbdb.cgi?sstr=3826810",
    "absolute_magnitude_h": 24.6,
    "estimated_diameter": {
        "kilometers": {
            "estimated_diameter_min": 0.0319561887,
            "estimated_diameter_max": 0.0714562102
        },
        "meters": {
            "estimated_diameter_min": 31.9561886721,
            "estimated_diameter_max": 71.4562101727
        },
        "miles": {
            "estimated_diameter_min": 0.0198566489,
            "estimated_diameter_max": 0.0444008168
        },
        "feet": {
            "estimated_diameter_min": 104.8431420431,
            "estimated_diameter_max": 234.436392583
        }
    },
    "is_potentially_hazardous_asteroid": false,
    "close_approach_data": [
        {
            "close_approach_date": "2018-08-05",
            "close_approach_date_full": "2018-Aug-05 22:01",
            "epoch_date_close_approach": 1533506460000,
            "relative_velocity": {
                "kilometers_per_second": "7.4277055263",
                "kilometers_per_hour": "26739.7398948267",
                "miles_per_hour": "16615.0344918716"
            },
            "miss_distance": {
                "astronomical": "0.084904582",
                "lunar": "33.027882398",
                "kilometers": "12701544.62044034",
                "miles": "7892373.852903092"
            },
            "orbiting_body": "Earth"
        }
    ],
    "orbital_data": {
        "orbit_id": "2",
        "orbit_determination_date": "2018-10-09 06:25:30",
        "first_observation_date": "2018-08-13",
        "last_observation_date": "2018-09-19",
        "data_arc_in_days": 37,
        "observations_used": 16,
        "orbit_uncertainty": "7",
        "minimum_orbit_intersection": ".0750464",
        "jupiter_tisserand_invariant": "3.517",
        "epoch_osculation": "2459000.5",
        "eccentricity": ".5008673440629555",
        "semi_major_axis": "2.15378383230115",
        "inclination": "8.724410388244843",
        "ascending_node_longitude": "151.0394614934436",
        "orbital_period": "1154.52035884503",
        "perihelion_distance": "1.075023844530739",
        "perihelion_argument": "158.1801595409524",
        "aphelion_distance": "3.232543820071561",
        "perihelion_time": "2459485.789065488397",
        "mean_anomaly": "208.6782305419064",
        "mean_motion": ".3118178014289331",
        "equinox": "J2000",
        "orbit_class": {
            "orbit_class_type": "AMO",
            "orbit_class_description": "Near-Earth asteroid orbits similar to that of 1221 Amor",
            "orbit_class_range": "1.017 AU < q (perihelion) < 1.3 AU"
        }
    },
    "is_sentry_object": false
}